{"type": "FeatureCollection", "features": [{"type": "Feature", "properties": {"name": "Offshore Kemerton"}, "geometry": {"type": "LineString", "coordinates": [[114.625, -32.9], [115.625, -32.9], [115.625, -33.25], [115.6, -33.36], [114.625, -33.36], [114.625, -32.9]]}}, {"type": "Feature", "properties": {"name": "Onshore Kemerton"}, "geometry": {"type": "LineString", "coordinates": [[115.625, -32.9], [116.0, -32.9], [116.0, -33.36], [115.6, -33.36], [115.625, -33.25], [115.625, -32.9]]}}, {"type": "Feature", "properties": {"name": "SWIS"}, "geometry": {"type": "LineString", "coordinates": [[114.0, -27.6], [115.625, -32.9], [116.0, -32.9], [116.0, -33.36], [115.625, -33.36], [114.95, -33.36], [114.95, -34.4], [116.3, -35.15], [118.3, -35.15], [120.6, -33.7], [120.0, -31.4], [122.185, -31.3], [122.185, -30.0], [118.0, -30.0], [115.3, -27.6], [114.0, -27.6]]}}]}